     2.10           GLONASS NAV DATA                        RINEX VERSION / TYPE
SPIDER V4,0,0,3554                      2015 03 24 02:17    PGM / RUN BY / DATE 
  2015     3     5   -9.778887033463e-009                    CORR TO SYSTEM TIME 
    16                                                      LEAP SECONDS        
                                                            END OF HEADER       
16 15 03 05 00 15  0.0-1.871772110462D-05 9.094947017729D-13 0.000000000000D+00
    2.246755126953D+04 1.008587837219D+00 5.587935447693D-09 0.000000000000D+00
   -9.072244628906D+03-4.182996749878D-01 0.000000000000D+00-1.000000000000D+00
    7.814254394531D+03-3.377815246582D+00 0.000000000000D+00 0.000000000000D+00
17 15 03 05 00 15  0.0 1.511452719569D-04 9.094947017729D-13 0.000000000000D+00
    2.406124511719D+03-5.464382171631D-01 0.000000000000D+00 0.000000000000D+00
    1.900554980469D+04 2.241880416870D+00-1.862645149231D-09 4.000000000000D+00
    1.685782812500D+04-2.456812858582D+00-1.862645149231D-09 0.000000000000D+00
19 15 03 05 00 15  0.0-1.198034733534D-04-0.000000000000D+00 0.000000000000D+00
    1.249446777344D+04-7.619762420654D-01 3.725290298462D-09 0.000000000000D+00
   -1.651681396484D+04 1.898226737976D+00 9.313225746155D-10 3.000000000000D+00
    1.489764306641D+04 2.744716644287D+00-9.313225746155D-10 0.000000000000D+00
 4 15 03 05 00 15  0.0 1.118965446949D-04 9.094947017729D-13 1.260000000000D+03
    1.911655419922D+04 1.285187721252D+00 2.793967723846D-09 0.000000000000D+00
    1.131974609375D+04 1.146833419800D+00-1.862645149231D-09 6.000000000000D+00
   -1.253169775391D+04 2.993405342102D+00 1.862645149231D-09 0.000000000000D+00
18 15 03 05 00 45  0.0 4.036724567413D-05 1.818989403546D-12 1.800000000000D+03
    9.196972656250D+03-4.430618286133D-01 1.862645149231D-09 0.000000000000D+00
    8.405132324219D+03 3.014272689819D+00-1.862645149231D-09-3.000000000000D+00
    2.228838085938D+04-9.481878280640D-01-1.862645149231D-09 0.000000000000D+00
 9 15 03 05 00 45  0.0-3.116205334663D-06 9.094947017729D-13 1.800000000000D+03
    1.347441650391D+04 2.120140075684D+00 4.656612873077D-09 0.000000000000D+00
   -1.355179980469D+04-9.521493911743D-01 0.000000000000D+00-2.000000000000D+00
    1.693309863281D+04-2.435692787170D+00-9.313225746155D-10 0.000000000000D+00
 2 15 03 05 00 45  0.0 1.215115189552D-04 1.818989403546D-12 1.800000000000D+03
   -9.956166992188D+02-2.333852767944D+00-0.000000000000D+00 0.000000000000D+00
    1.263710351563D+04-1.928496360779D+00-9.313225746155D-10-4.000000000000D+00
    2.217074462891D+04 9.927911758423D-01-1.862645149231D-09 0.000000000000D+00
 3 15 03 05 00 45  0.0 3.651343286037D-05 9.094947017729D-13 1.800000000000D+03
    1.415792236328D+04-1.086258888245D+00 9.313225746155D-10 0.000000000000D+00
    1.814526953125D+04-1.055074691772D+00-2.793967723846D-09 5.000000000000D+00
    1.105679492188D+04 3.128906250000D+00-9.313225746155D-10 0.000000000000D+00
 4 15 03 05 00 45  0.0 1.118993386626D-04 9.094947017729D-13 1.800000000000D+03
    2.104447900391D+04 8.158721923828D-01 2.793967723846D-09 0.000000000000D+00
    1.275196435547D+04 4.570875167847D-01-2.793967723846D-09 6.000000000000D+00
   -6.728678710938D+03 3.412508010864D+00 9.313225746155D-10 0.000000000000D+00
16 15 03 05 00 45  0.0-1.871585845947D-05 9.094947017729D-13 1.800000000000D+03
    2.349259179688D+04 1.321048736572D-01 5.587935447693D-09 0.000000000000D+00
   -9.710277832031D+03-2.485885620117D-01-9.313225746155D-10-1.000000000000D+00
    1.509363769531D+03-3.581850051880D+00 9.313225746155D-10 0.000000000000D+00
17 15 03 05 00 45  0.0 1.511471346021D-04 9.094947017729D-13 1.800000000000D+03
    1.843070312500D+03-1.032094955444D-01-9.313225746155D-10 0.000000000000D+00
    2.251910742188D+04 1.622710227966D+00-1.862645149231D-09 4.000000000000D+00
    1.184150878906D+04-3.080828666687D+00-9.313225746155D-10 0.000000000000D+00
19 15 03 05 00 45  0.0-1.198053359985D-04-0.000000000000D+00 1.800000000000D+03
    1.126289843750D+04-5.700712203979D-01 3.725290298462D-09 0.000000000000D+00
   -1.246857763672D+04 2.568626403809D+00 0.000000000000D+00 3.000000000000D+00
    1.919870019531D+04 2.003249168396D+00-1.862645149231D-09 0.000000000000D+00
10 15 03 05 00 45  0.0 9.575858712196D-06 0.000000000000D+00 3.420000000000D+03
   -4.018460449219D+03 2.990493774414D+00 9.313225746155D-10 0.000000000000D+00
   -9.632505371094D+03-1.123563766479D+00 9.313225746155D-10-7.000000000000D+00
    2.325569042969D+04 4.517173767090D-02-1.862645149231D-09 0.000000000000D+00
18 15 03 05 01 15  0.0 4.037097096443D-05 1.818989403546D-12 3.600000000000D+03
    8.821204101563D+03 1.386547088623D-02 0.000000000000D+00 0.000000000000D+00
    1.359130273438D+04 2.699137687683D+00-1.862645149231D-09-3.000000000000D+00
    1.974502734375D+04-1.859351158142D+00-1.862645149231D-09 0.000000000000D+00
 9 15 03 05 01 15  0.0-3.113411366940D-06 9.094947017729D-13 3.600000000000D+03
    1.662124658203D+04 1.359966278076D+00 4.656612873077D-09 0.000000000000D+00
   -1.528266796875D+04-9.281606674194D-01-9.313225746155D-10-2.000000000000D+00
    1.195296142578D+04-3.061827659607D+00-0.000000000000D+00 0.000000000000D+00
 2 15 03 05 01 15  0.0 1.215152442455D-04 1.818989403546D-12 3.600000000000D+03
   -5.558621093750D+03-2.697540283203D+00-9.313225746155D-10 0.000000000000D+00
    9.403243652344D+03-1.630656242371D+00-0.000000000000D+00-4.000000000000D+00
    2.308080322266D+04 1.177787780762D-02-2.793967723846D-09 0.000000000000D+00
 3 15 03 05 01 15  0.0 3.651529550552D-05 9.094947017729D-13 3.600000000000D+03
    1.152907666016D+04-1.828266143799D+00 0.000000000000D+00 0.000000000000D+00
    1.603479541016D+04-1.245443344116D+00-1.862645149231D-09 5.000000000000D+00
    1.619015283203D+04 2.537962913513D+00-9.313225746155D-10 0.000000000000D+00
 4 15 03 05 01 15  0.0 1.119021326303D-04 9.094947017729D-13 3.600000000000D+03
    2.192399511719D+04 1.316642761230D-01 1.862645149231D-09 0.000000000000D+00
    1.304059716797D+04-1.079511642456D-01-2.793967723846D-09 6.000000000000D+00
   -4.054228515625D+02 3.567711830139D+00 0.000000000000D+00 0.000000000000D+00
10 15 03 05 01 15  0.0 9.576790034771D-06 0.000000000000D+00 3.600000000000D+03
    1.133866210938D+03 2.688252449036D+00 1.862645149231D-09 0.000000000000D+00
   -1.202808886719D+04-1.511333465576D+00 0.000000000000D+00-7.000000000000D+00
    2.243490185547D+04-9.514093399048D-01-1.862645149231D-09 0.000000000000D+00
16 15 03 05 01 15  0.0-1.871399581432D-05 9.094947017729D-13 3.600000000000D+03
    2.298478857422D+04-6.754121780396D-01 4.656612873077D-09 0.000000000000D+00
   -9.823997558594D+03 1.582403182983D-01-1.862645149231D-09-1.000000000000D+00
   -4.912907714844D+03-3.507465362549D+00 9.313225746155D-10 0.000000000000D+00
19 15 03 05 01 15  0.0-1.198071986437D-04-0.000000000000D+00 3.600000000000D+03
    1.055160205078D+04-1.969337463379D-01 2.793967723846D-09 0.000000000000D+00
   -7.408624511719D+03 3.008738517761D+00-9.313225746155D-10 3.000000000000D+00
    2.201632763672D+04 1.107158660889D+00-1.862645149231D-09 0.000000000000D+00
18 15 03 05 01 45  0.0 4.037469625473D-05 1.818989403546D-12 5.400000000000D+03
    9.174986816406D+03 3.517160415649D-01-9.313225746155D-10 0.000000000000D+00
    1.796081835938D+04 2.116684913635D+00-1.862645149231D-09-3.000000000000D+00
    1.568118994141D+04-2.626768112183D+00-9.313225746155D-10 0.000000000000D+00
 9 15 03 05 01 45  0.0-3.111548721790D-06 9.094947017729D-13 5.400000000000D+03
    1.834616015625D+04 5.596456527710D-01 5.587935447693D-09 0.000000000000D+00
   -1.673565917969D+04-6.431846618652D-01-1.862645149231D-09-2.000000000000D+00
    6.052734863281D+03-3.451549530029D+00 0.000000000000D+00 0.000000000000D+00
 3 15 03 05 01 45  0.0 3.651715815067D-05 9.094947017729D-13 5.400000000000D+03
    7.633087890625D+03-2.475782394409D+00-0.000000000000D+00 0.000000000000D+00
    1.381792333984D+04-1.176890373230D+00-9.313225746155D-10 5.000000000000D+00
    2.007600439453D+04 1.751755714417D+00-1.862645149231D-09 0.000000000000D+00
10 15 03 05 01 45  0.0 9.577721357346D-06 0.000000000000D+00 5.400000000000D+03
    5.515075683594D+03 2.146925926208D+00 3.725290298462D-09 0.000000000000D+00
   -1.495032324219D+04-1.695243835449D+00-0.000000000000D+00-7.000000000000D+00
    1.987440039063D+04-1.875196456909D+00-1.862645149231D-09 0.000000000000D+00
 4 15 03 05 01 45  0.0 1.119049265981D-04 9.094947017729D-13 5.400000000000D+03
    2.144002636719D+04-6.824712753296D-01 9.313225746155D-10 0.000000000000D+00
    1.248681103516D+04-4.684963226318D-01-3.725290298462D-09 6.000000000000D+00
    5.949192871094D+03 3.447150230408D+00-0.000000000000D+00 0.000000000000D+00
16 15 03 05 01 45  0.0-1.871213316917D-05 9.094947017729D-13 5.400000000000D+03
    2.116591601563D+04-1.309288978577D+00 3.725290298462D-09 0.000000000000D+00
   -9.031850585938D+03 7.451715469360D-01-1.862645149231D-09-1.000000000000D+00
   -1.095387402344D+04-3.161070823669D+00 1.862645149231D-09 0.000000000000D+00
19 15 03 05 01 45  0.0-1.198081299663D-04-0.000000000000D+00 5.400000000000D+03
    1.060800097656D+04 2.657623291016D-01 1.862645149231D-09 0.000000000000D+00
   -1.813568359375D+03 3.156264305115D+00-1.862645149231D-09 3.000000000000D+00
    2.313308886719D+04 1.256484985352D-01-1.862645149231D-09 0.000000000000D+00
20 15 03 05 01 45  0.0-1.616356894374D-04-1.818989403546D-12 5.430000000000D+03
    5.699204101563D+03 4.205894470215D-02 3.725290298462D-09 0.000000000000D+00
   -1.919537646484D+04 2.166094779968D+00-0.000000000000D+00 2.000000000000D+00
    1.577958544922D+04 2.626716613770D+00-9.313225746155D-10 0.000000000000D+00
